{"type": "FeatureCollection", "features": [ {"type": "Feature", "properties": {"norad_id": 67040, "name": "STARLINK-35786", "group": "last-30-days", "lat": 42.00392752138491, "lon": -159.5610421924116, "alt_km": 370.809224065968, "timestamp": "2025-12-26T22:28:04.500786+00:00", "meta": {"OBJECT_NAME": "STARLINK-35786", "OBJECT_ID": "2025-294L", "EPOCH": "2025-12-26T18:00:02.998944", "MEAN_MOTION": 15.64668246, "ECCENTRICITY": 0.0001318, "INCLINATION": 42.9995, "RA_OF_ASC_NODE": 96.659, "ARG_OF_PERICENTER": 289.9951, "MEAN_ANOMALY": 201.5628, "EPHEMERIS_TYPE": 0, "CLASSIFICATION_TYPE": "U", "NORAD_CAT_ID": 67040, "ELEMENT_SET_NO": 999, "REV_AT_EPOCH": 236, "BSTAR": -0.0215, "MEAN_MOTION_DOT": -0.01898259, "MEAN_MOTION_DDOT": 0}, "tle": {"line1": "1 67040U 25294L   25360.75003471 -.01898259  00000+0 -21500-1 0  9994", "line2": "2 67040  42.9995  96.6590 0001318 289.9951 201.5628 15.64668246  2361"}}, "geometry": {"type": "Point", "coordinates": [-159.5610421924116, 42.00392752138491]}}, {"type": "Feature", "properties": {"norad_id": 67041, "name": "STARLINK-35765", "group": "last-30-days", "lat": 41.189699714671534, "lon": -154.3708680624209, "alt_km": 370.9693712435492, "timestamp": "2025-12-26T22:28:04.500796+00:00", "meta": {"OBJECT_NAME": "STARLINK-35765", "OBJECT_ID": "2025-294M", "EPOCH": "2025-12-26T18:00:02.998944", "MEAN_MOTION": 15.64648874, "ECCENTRICITY": 0.0001289, "INCLINATION": 42.9995, "RA_OF_ASC_NODE": 96.6488, "ARG_OF_PERICENTER": 289.9669, "MEAN_ANOMALY": 205.5709, "EPHEMERIS_TYPE": 0, "CLASSIFICATION_TYPE": "U", "NORAD_CAT_ID": 67041, "ELEMENT_SET_NO": 999, "REV_AT_EPOCH": 236, "BSTAR": -0.021393, "MEAN_MOTION_DOT": -0.018886, "MEAN_MOTION_DDOT": 0}, "tle": {"line1": "1 67041U 25294M   25360.75003471 -.01888600  00000+0 -21393-1 0  9994", "line2": "2 67041  42.9995  96.6488 0001289 289.9669 205.5709 15.64648874  2360"}}, "geometry": {"type": "Point", "coordinates": [-154.3708680624209, 41.189699714671534]}}, {"type": "Feature", "properties": {"norad_id": 67042, "name": "STARLINK-35773", "group": "last-30-days", "lat": 40.681165483657374, "lon": -151.75476851614968, "alt_km": 371.1054724198111, "timestamp": "2025-12-26T22:28:04.500806+00:00", "meta": {"OBJECT_NAME": "STARLINK-35773", "OBJECT_ID": "2025-294N", "EPOCH": "2025-12-26T18:00:02.998944", "MEAN_MOTION": 15.64637526, "ECCENTRICITY": 0.0001321, "INCLINATION": 42.9996, "RA_OF_ASC_NODE": 96.6436, "ARG_OF_PERICENTER": 290.4491, "MEAN_ANOMALY": 207.1383, "EPHEMERIS_TYPE": 0, "CLASSIFICATION_TYPE": "U", "NORAD_CAT_ID": 67042, "ELEMENT_SET_NO": 999, "REV_AT_EPOCH": 255, "BSTAR": -0.021397, "MEAN_MOTION_DOT": -0.01888143, "MEAN_MOTION_DDOT": 0}, "tle": {"line1": "1 67042U 25294N   25360.75003471 -.01888143  00000+0 -21397-1 0  9991", "line2": "2 67042  42.9996  96.6436 0001321 290.4491 207.1383 15.64637526  2551"}}, "geometry": {"type": "Point", "coordinates": [-151.75476851614968, 40.681165483657374]}}, {"type": "Feature", "properties": {"norad_id": 67043, "name": "STARLINK-35901", "group": "last-30-days", "lat": 40.11677499874163, "lon": -149.19135495079016, "alt_km": 371.2199492220825, "timestamp": "2025-12-26T22:28:04.500819+00:00", "meta": {"OBJECT_NAME": "STARLINK-35901", "OBJECT_ID": "2025-294P", "EPOCH": "2025-12-26T18:00:02.998944", "MEAN_MOTION": 15.64629192, "ECCENTRICITY": 0.0001317, "INCLINATION": 42.9996, "RA_OF_ASC_NODE": 96.6388, "ARG_OF_PERICENTER": 291.0451, "MEAN_ANOMALY": 208.5814, "EPHEMERIS_TYPE": 0, "CLASSIFICATION_TYPE": "U", "NORAD_CAT_ID": 67043, "ELEMENT_SET_NO": 999, "REV_AT_EPOCH": 255, "BSTAR": -0.021429, "MEAN_MOTION_DOT": -0.01890035, "MEAN_MOTION_DDOT": 0}, "tle": {"line1": "1 67043U 25294P   25360.75003471 -.01890035  00000+0 -21429-1 0  9991", "line2": "2 67043  42.9996  96.6388 0001317 291.0451 208.5814 15.64629192  2550"}}, "geometry": {"type": "Point", "coordinates": [-149.19135495079016, 40.11677499874163]}}, {"type": "Feature", "properties": {"norad_id": 67044, "name": "STARLINK-35884", "group": "last-30-days", "lat": 39.504699928747705, "lon": -146.70244674601372, "alt_km": 371.3575402808083, "timestamp": "2025-12-26T22:28:04.500829+00:00", "meta": {"OBJECT_NAME": "STARLINK-35884", "OBJECT_ID": "2025-294Q", "EPOCH": "2025-12-26T18:00:02.998944", "MEAN_MOTION": 15.6462224, "ECCENTRICITY": 0.0001342, "INCLINATION": 42.9999, "RA_OF_ASC_NODE": 96.6339, "ARG_OF_PERICENTER": 290.5823, "MEAN_ANOMALY": 211.0581, "EPHEMERIS_TYPE": 0, "CLASSIFICATION_TYPE": "U", "NORAD_CAT_ID": 67044, "ELEMENT_SET_NO": 999, "REV_AT_EPOCH": 255, "BSTAR": -0.021451, "MEAN_MOTION_DOT": -0.01891338, "MEAN_MOTION_DDOT": 0}, "tle": {"line1": "1 67044U 25294Q   25360.75003471 -.01891338  00000+0 -21451-1 0  9994", "line2": "2 67044  42.9999  96.6339 0001342 290.5823 211.0581 15.64622240  2552"}}, "geometry": {"type": "Point", "coordinates": [-146.70244674601372, 39.504699928747705]}}, {"type": "Feature", "properties": {"norad_id": 67045, "name": "STARLINK-35891", "group": "last-30-days", "lat": 38.786459657301904, "lon": -144.07402702871963, "alt_km": 371.49755908921816, "timestamp": "2025-12-26T22:28:04.500845+00:00", "meta": {"OBJECT_NAME": "STARLINK-35891", "OBJECT_ID": "2025-294R", "EPOCH": "2025-12-26T18:00:02.998944", "MEAN_MOTION": 15.64606245, "ECCENTRICITY": 0.0001296, "INCLINATION": 42.9994, "RA_OF_ASC_NODE": 96.6281, "ARG_OF_PERICENTER": 288.9129, "MEAN_ANOMALY": 214.9032, "EPHEMERIS_TYPE": 0, "CLASSIFICATION_TYPE": "U", "NORAD_CAT_ID": 67045, "ELEMENT_SET_NO": 999, "REV_AT_EPOCH": 247, "BSTAR": -0.02157, "MEAN_MOTION_DOT": -0.01899548, "MEAN_MOTION_DDOT": 0}, "tle": {"line1": "1 67045U 25294R   25360.75003471 -.01899548  00000+0 -21570-1 0  9998", "line2": "2 67045  42.9994  96.6281 0001296 288.9129 214.9032 15.64606245  2473"}}, "geometry": {"type": "Point", "coordinates": [-144.07402702871963, 38.786459657301904]}}, {"type": "Feature", "properties": {"norad_id": 67046, "name": "STARLINK-35721", "group": "last-30-days", "lat": 38.044513304614476, "lon": -141.60698099720156, "alt_km": 371.63749379033106, "timestamp": "2025-12-26T22:28:04.500855+00:00", "meta": {"OBJECT_NAME": "STARLINK-35721", "OBJECT_ID": "2025-294S", "EPOCH": "2025-12-26T18:00:02.998944", "MEAN_MOTION": 15.64593239, "ECCENTRICITY": 0.0001276, "INCLINATION": 42.9994, "RA_OF_ASC_NODE": 96.6228, "ARG_OF_PERICENTER": 288.0556, "MEAN_ANOMALY": 217.8418, "EPHEMERIS_TYPE": 0, "CLASSIFICATION_TYPE": "U", "NORAD_CAT_ID": 67046, "ELEMENT_SET_NO": 999, "REV_AT_EPOCH": 255, "BSTAR": -0.021594, "MEAN_MOTION_DOT": -0.01900456, "MEAN_MOTION_DDOT": 0}, "tle": {"line1": "1 67046U 25294S   25360.75003471 -.01900456  00000+0 -21594-1 0  9996", "line2": "2 67046  42.9994  96.6228 0001276 288.0556 217.8418 15.64593239  2555"}}, "geometry": {"type": "Point", "coordinates": [-141.60698099720156, 38.044513304614476]}}, {"type": "Feature", "properties": {"norad_id": 67047, "name": "STARLINK-35779", "group": "last-30-days", "lat": 37.21673806289919, "lon": -139.08881805225045, "alt_km": 371.8493462803708, "timestamp": "2025-12-26T22:28:04.500865+00:00", "meta": {"OBJECT_NAME": "STARLINK-35779", "OBJECT_ID": "2025-294T", "EPOCH": "2025-12-26T18:00:02.998944", "MEAN_MOTION": 15.6456472, "ECCENTRICITY": 0.0001294, "INCLINATION": 42.9993, "RA_OF_ASC_NODE": 96.6174, "ARG_OF_PERICENTER": 289.8126, "MEAN_ANOMALY": 218.2629, "EPHEMERIS_TYPE": 0, "CLASSIFICATION_TYPE": "U", "NORAD_CAT_ID": 67047, "ELEMENT_SET_NO": 999, "REV_AT_EPOCH": 236, "BSTAR": -0.021498, "MEAN_MOTION_DOT": -0.01891137, "MEAN_MOTION_DDOT": 0}, "tle": {"line1": "1 67047U 25294T   25360.75003471 -.01891137  00000+0 -21498-1 0  9995", "line2": "2 67047  42.9993  96.6174 0001294 289.8126 218.2629 15.64564720  2368"}}, "geometry": {"type": "Point", "coordinates": [-139.08881805225045, 37.21673806289919]}}, {"type": "Feature", "properties": {"norad_id": 67048, "name": "STARLINK-35905", "group": "last-30-days", "lat": 36.42874963715193, "lon": -136.87454523899657, "alt_km": 371.97964426520866, "timestamp": "2025-12-26T22:28:04.500876+00:00", "meta": {"OBJECT_NAME": "STARLINK-35905", "OBJECT_ID": "2025-294U", "EPOCH": "2025-12-26T18:00:02.998944", "MEAN_MOTION": 15.6456229, "ECCENTRICITY": 0.0001295, "INCLINATION": 42.9997, "RA_OF_ASC_NODE": 96.6125, "ARG_OF_PERICENTER": 290.1358, "MEAN_ANOMALY": 219.8826, "EPHEMERIS_TYPE": 0, "CLASSIFICATION_TYPE": "U", "NORAD_CAT_ID": 67048, "ELEMENT_SET_NO": 999, "REV_AT_EPOCH": 247, "BSTAR": -0.021497, "MEAN_MOTION_DOT": -0.01890847, "MEAN_MOTION_DDOT": 0}, "tle": {"line1": "1 67048U 25294U   25360.75003471 -.01890847  00000+0 -21497-1 0  9992", "line2": "2 67048  42.9997  96.6125 0001295 290.1358 219.8826 15.64562290  2470"}}, "geometry": {"type": "Point", "coordinates": [-136.87454523899657, 36.42874963715193]}}, {"type": "Feature", "properties": {"norad_id": 67049, "name": "STARLINK-35877", "group": "last-30-days", "lat": 35.5216056649774, "lon": -134.5072831728554, "alt_km": 372.15528936520514, "timestamp": "2025-12-26T22:28:04.500886+00:00", "meta": {"OBJECT_NAME": "STARLINK-35877", "OBJECT_ID": "2025-294V", "EPOCH": "2025-12-26T18:00:02.998944", "MEAN_MOTION": 15.64551415, "ECCENTRICITY": 0.0001287, "INCLINATION": 42.9998, "RA_OF_ASC_NODE": 96.6075, "ARG_OF_PERICENTER": 288.6749, "MEAN_ANOMALY": 223.4739, "EPHEMERIS_TYPE": 0, "CLASSIFICATION_TYPE": "U", "NORAD_CAT_ID": 67049, "ELEMENT_SET_NO": 999, "REV_AT_EPOCH": 255, "BSTAR": -0.021627, "MEAN_MOTION_DOT": -0.01900251, "MEAN_MOTION_DDOT": 0}, "tle": {"line1": "1 67049U 25294V   25360.75003471 -.01900251  00000+0 -21627-1 0  9999", "line2": "2 67049  42.9998  96.6075 0001287 288.6749 223.4739 15.64551415  2553"}}, "geometry": {"type": "Point", "coordinates": [-134.5072831728554, 35.5216056649774]}}]}